IRIDIUM 7               
1 24793U 97020B   24310.60386684  .00001876  00000+0  64512-3 0  9996
2 24793  86.3927 270.5609 0002524  92.0995 268.0490 14.35569727439811
IRIDIUM 5               
1 24795U 97020D   24310.74240202  .00011979  00000+0  10726-2 0  9990
2 24795  86.3951 186.4207 0113999 217.7289 141.5908 14.90792491452169
IRIDIUM 4               
1 24796U 97020E   24310.58936049  .00001735  00000+0  58524-3 0  9992
2 24796  86.3925 267.5880 0002273  90.2240 269.9217 14.36483931440365
IRIDIUM 914             
1 24836U 97030A   24310.44703587  .00002473  00000+0  77300-3 0  9995
2 24836  86.3894 276.9293 0001226 130.5633 229.5673 14.40416887574916
IRIDIUM 911             
1 24842U 97030G   24310.46823470  .00002796  00000+0  76156-3 0  9994
2 24842  86.4412 298.2820 0016325 119.0764 241.2076 14.47054486442727
IRIDIUM 17              
1 24870U 97034B   24310.61805461  .00001638  00000+0  54213-3 0  9990
2 24870  86.3942 328.8007 0003278  63.8570 296.2964 14.37396092431462
IRIDIUM 920             
1 24871U 97034C   24310.54085539  .00001828  00000+0  56117-3 0  9995
2 24871  86.3934 308.5692 0013848  98.4452 261.8318 14.41093899434363
